{
  "type": "FeatureCollection",
  "features": [
    {
      "type": "Feature",
      "properties": {
        "norad_id": 31005,
        "name": "FENGYUN 1C DEB",
        "group": "fengyun-1c-debris",
        "lat": -7.017596005314145,
        "lon": 120.23210809562252,
        "alt_km": 834.3901500554039,
        "timestamp": "2025-12-11T07:02:24.010218+00:00",
        "meta_object_name": "FENGYUN 1C DEB",
        "meta_object_id": "1999-025BCX",
        "meta_epoch": "2025-12-08T20:47:14.873568",
        "meta_mean_motion": 13.83265387,
        "meta_eccentricity": 0.01804679,
        "meta_inclination": 98.6131,
        "meta_ra_of_asc_node": 116.9395,
        "meta_arg_of_pericenter": 336.0404,
        "meta_mean_anomaly": 175.9068,
        "meta_ephemeris_type": 0,
        "meta_classification_type": "U",
        "meta_norad_cat_id": 31005,
        "meta_element_set_no": 999,
        "meta_rev_at_epoch": 94227,
        "meta_bstar": 0.001772477,
        "meta_mean_motion_dot": 2.165e-05,
        "meta_mean_motion_ddot": 0,
        "tle_line1": "1 31005U 99025BCX 25342.86614437  .00002165  00000+0  17725-2 0  9996",
        "tle_line2": "2 31005  98.6131 116.9395 0180467 336.0404 175.9068 13.83265387942275"
      },
      "geometry": {
        "type": "Point",
        "coordinates": [
          120.23210809562252,
          -7.017596005314145
        ]
      }
    },
    {
      "type": "Feature",
      "properties": {
        "norad_id": 31007,
        "name": "FENGYUN 1C DEB",
        "group": "fengyun-1c-debris",
        "lat": 26.22385193916716,
        "lon": -26.88197144824068,
        "alt_km": 650.783877488012,
        "timestamp": "2025-12-11T07:02:24.010228+00:00",
        "meta_object_name": "FENGYUN 1C DEB",
        "meta_object_id": "1999-025BCZ",
        "meta_epoch": "2025-12-10T22:41:17.797632",
        "meta_mean_motion": 14.58580544,
        "meta_eccentricity": 0.00675348,
        "meta_inclination": 98.0869,
        "meta_ra_of_asc_node": 336.7954,
        "meta_arg_of_pericenter": 43.464,
        "meta_mean_anomaly": 317.1856,
        "meta_ephemeris_type": 0,
        "meta_classification_type": "U",
        "meta_norad_cat_id": 31007,
        "meta_element_set_no": 999,
        "meta_rev_at_epoch": 98068,
        "meta_bstar": 0.0032478597,
        "meta_mean_motion_dot": 0.00015578,
        "meta_mean_motion_ddot": 0,
        "tle_line1": "1 31007U 99025BCZ 25344.94534488  .00015578  00000+0  32479-2 0  9991",
        "tle_line2": "2 31007  98.0869 336.7954 0067534  43.4640 317.1856 14.58580544980682"
      },
      "geometry": {
        "type": "Point",
        "coordinates": [
          -26.88197144824068,
          26.22385193916716
        ]
      }
    },
    {
      "type": "Feature",
      "properties": {
        "norad_id": 31009,
        "name": "FENGYUN 1C DEB",
        "group": "fengyun-1c-debris",
        "lat": -58.20202948381723,
        "lon": 146.51956039998265,
        "alt_km": 861.2395598256799,
        "timestamp": "2025-12-11T07:02:24.010239+00:00",
        "meta_object_name": "FENGYUN 1C DEB",
        "meta_object_id": "1999-025BDB",
        "meta_epoch": "2025-12-10T11:45:46.659168",
        "meta_mean_motion": 14.00362856,
        "meta_eccentricity": 0.00527805,
        "meta_inclination": 98.8978,
        "meta_ra_of_asc_node": 340.374,
        "meta_arg_of_pericenter": 243.6341,
        "meta_mean_anomaly": 268.6696,
        "meta_ephemeris_type": 0,
        "meta_classification_type": "U",
        "meta_norad_cat_id": 31009,
        "meta_element_set_no": 999,
        "meta_rev_at_epoch": 95829,
        "meta_bstar": 0.00022738714,
        "meta_mean_motion_dot": 2.97e-06,
        "meta_mean_motion_ddot": 0,
        "tle_line1": "1 31009U 99025BDB 25344.49012337  .00000297  00000+0  22739-3 0  9998",
        "tle_line2": "2 31009  98.8978 340.3740 0052780 243.6341 268.6696 14.00362856958291"
      },
      "geometry": {
        "type": "Point",
        "coordinates": [
          146.51956039998265,
          -58.20202948381723
        ]
      }
    },
    {
      "type": "Feature",
      "properties": {
        "norad_id": 31010,
        "name": "FENGYUN 1C DEB",
        "group": "fengyun-1c-debris",
        "lat": 11.12779526373655,
        "lon": -45.85391475441424,
        "alt_km": 887.408767007254,
        "timestamp": "2025-12-11T07:02:24.010249+00:00",
        "meta_object_name": "FENGYUN 1C DEB",
        "meta_object_id": "1999-025BDC",
        "meta_epoch": "2025-12-10T08:21:32.224896",
        "meta_mean_motion": 14.2574025,
        "meta_eccentricity": 0.0113339,
        "meta_inclination": 101.7253,
        "meta_ra_of_asc_node": 130.5446,
        "meta_arg_of_pericenter": 0.6899,
        "meta_mean_anomaly": 359.4407,
        "meta_ephemeris_type": 0,
        "meta_classification_type": "U",
        "meta_norad_cat_id": 31010,
        "meta_element_set_no": 999,
        "meta_rev_at_epoch": 95595,
        "meta_bstar": 0.0048891724,
        "meta_mean_motion_dot": 0.00012374,
        "meta_mean_motion_ddot": 0,
        "tle_line1": "1 31010U 99025BDC 25344.34828964  .00012374  00000+0  48892-2 0  9991",
        "tle_line2": "2 31010 101.7253 130.5446 0113339   0.6899 359.4407 14.25740250955956"
      },
      "geometry": {
        "type": "Point",
        "coordinates": [
          -45.85391475441424,
          11.12779526373655
        ]
      }
    },
    {
      "type": "Feature",
      "properties": {
        "norad_id": 31012,
        "name": "FENGYUN 1C DEB",
        "group": "fengyun-1c-debris",
        "lat": -77.32800826831323,
        "lon": 19.11040060441561,
        "alt_km": 748.0667122064187,
        "timestamp": "2025-12-11T07:02:24.010259+00:00",
        "meta_object_name": "FENGYUN 1C DEB",
        "meta_object_id": "1999-025BDE",
        "meta_epoch": "2025-12-10T12:09:09.012384",
        "meta_mean_motion": 14.27859483,
        "meta_eccentricity": 0.00813124,
        "meta_inclination": 98.9116,
        "meta_ra_of_asc_node": 242.5608,
        "meta_arg_of_pericenter": 257.9858,
        "meta_mean_anomaly": 279.8457,
        "meta_ephemeris_type": 0,
        "meta_classification_type": "U",
        "meta_norad_cat_id": 31012,
        "meta_element_set_no": 999,
        "meta_rev_at_epoch": 97715,
        "meta_bstar": 0.00031486728,
        "meta_mean_motion_dot": 7.6e-06,
        "meta_mean_motion_ddot": 0,
        "tle_line1": "1 31012U 99025BDE 25344.50635431  .00000760  00000+0  31487-3 0  9995",
        "tle_line2": "2 31012  98.9116 242.5608 0081312 257.9858 279.8457 14.27859483977151"
      },
      "geometry": {
        "type": "Point",
        "coordinates": [
          19.11040060441561,
          -77.32800826831323
        ]
      }
    },
    {
      "type": "Feature",
      "properties": {
        "norad_id": 31014,
        "name": "FENGYUN 1C DEB",
        "group": "fengyun-1c-debris",
        "lat": -48.16572061557853,
        "lon": -29.004598586612882,
        "alt_km": 931.0564036807427,
        "timestamp": "2025-12-11T07:02:24.010269+00:00",
        "meta_object_name": "FENGYUN 1C DEB",
        "meta_object_id": "1999-025BDG",
        "meta_epoch": "2025-12-10T21:07:07.245408",
        "meta_mean_motion": 13.98489197,
        "meta_eccentricity": 0.00876695,
        "meta_inclination": 98.8687,
        "meta_ra_of_asc_node": 320.551,
        "meta_arg_of_pericenter": 198.5101,
        "meta_mean_anomaly": 191.6169,
        "meta_ephemeris_type": 0,
        "meta_classification_type": "U",
        "meta_norad_cat_id": 31014,
        "meta_element_set_no": 999,
        "meta_rev_at_epoch": 95810,
        "meta_bstar": 0.00036347546,
        "meta_mean_motion_dot": 4.95e-06,
        "meta_mean_motion_ddot": 0,
        "tle_line1": "1 31014U 99025BDG 25344.87994497  .00000495  00000+0  36348-3 0  9993",
        "tle_line2": "2 31014  98.8687 320.5510 0087669 198.5101 191.6169 13.98489197958109"
      },
      "geometry": {
        "type": "Point",
        "coordinates": [
          -29.004598586612882,
          -48.16572061557853
        ]
      }
    },
    {
      "type": "Feature",
      "properties": {
        "norad_id": 31016,
        "name": "FENGYUN 1C DEB",
        "group": "fengyun-1c-debris",
        "lat": -74.59034932054684,
        "lon": 148.5849807799982,
        "alt_km": 722.5809929194829,
        "timestamp": "2025-12-11T07:02:24.010279+00:00",
        "meta_object_name": "FENGYUN 1C DEB",
        "meta_object_id": "1999-025BDJ",
        "meta_epoch": "2025-12-09T17:12:18.903744",
        "meta_mean_motion": 14.30487106,
        "meta_eccentricity": 0.01119752,
        "meta_inclination": 98.4363,
        "meta_ra_of_asc_node": 359.6335,
        "meta_arg_of_pericenter": 283.19,
        "meta_mean_anomaly": 140.6349,
        "meta_ephemeris_type": 0,
        "meta_classification_type": "U",
        "meta_norad_cat_id": 31016,
        "meta_element_set_no": 999,
        "meta_rev_at_epoch": 97427,
        "meta_bstar": 0.0004909379,
        "meta_mean_motion_dot": 1.325e-05,
        "meta_mean_motion_ddot": 0,
        "tle_line1": "1 31016U 99025BDJ 25343.71688546  .00001325  00000+0  49094-3 0  9997",
        "tle_line2": "2 31016  98.4363 359.6335 0111975 283.1900 140.6349 14.30487106974277"
      },
      "geometry": {
        "type": "Point",
        "coordinates": [
          148.5849807799982,
          -74.59034932054684
        ]
      }
    }
  ]
}